NORAD_CAT_ID,OBJECT_NAME,OBJECT_TYPE,EPOCH,MEAN_MOTION,ECCENTRICITY,INCLINATION,RA_OF_ASC_NODE,ARG_OF_PERICENTER,MEAN_ANOMALY,BSTAR,MEAN_MOTION_DOT,MEAN_MOTION_DDOT,TLE_LINE0,TLE_LINE1,TLE_LINE2,SEMIMAJOR_AXIS,PERIOD,APOGEE,PERIGEE,DECAYED
52991.0,STARLINK-4285,PAYLOAD,2023-03-19 08:04:40,15.08844293,0.0001767,53.2137,300.9536,84.3856,275.7337,8.9112e-05,1.131e-05,0.0,0 STARLINK-4285,1 52991U 22076F   23078.33657836  .00001131  00000-0  89112-4 0  9995,2 52991  53.2137 300.9536 0001767  84.3856 275.7337 15.08844293 39178,6917.867,95.437,540.955,538.51,0.0
52991.0,STARLINK-4285,PAYLOAD,2023-03-19 20:47:45,15.0884324,0.0001112,53.2132,298.5721,93.2074,266.9045,0.00011588,1.557e-05,0.0,0 STARLINK-4285,1 52991U 22076F   23078.86649511  .00001557  00000-0  11588-3 0  9997,2 52991  53.2132 298.5721 0001112  93.2074 266.9045 15.08843240 38781,6917.87,95.437,540.505,538.966,0.0
52991.0,STARLINK-4285,PAYLOAD,2023-03-20 07:55:27,15.0884522,0.0001249,53.2135,296.4935,81.4791,278.6342,0.00015893,2.243e-05,0.0,0 STARLINK-4285,1 52991U 22076F   23079.33017526  .00002243  00000-0  15893-3 0  9991,2 52991  53.2135 296.4935 0001249  81.4791 278.6342 15.08845220 38852,6917.864,95.437,540.593,538.865,0.0
52991.0,STARLINK-4285,PAYLOAD,2023-03-20 20:38:32,15.08846836,0.0001181,53.2134,294.1146,79.7759,280.3366,0.0002461,3.632e-05,0.0,0 STARLINK-4285,1 52991U 22076F   23079.86009403  .00003632  00000-0  24610-3 0  9994,2 52991  53.2134 294.1146 0001181  79.7759 280.3366 15.08846836 39401,6917.859,95.437,540.541,538.907,0.0
52991.0,STARLINK-4285,PAYLOAD,2023-03-21 01:24:41,15.08854627,0.000116,53.2141,293.2207,86.7511,273.3614,0.00046402,7.108e-05,0.0,0 STARLINK-4285,1 52991U 22076F   23080.05880970  .00007108  00000-0  46402-3 0  9998,2 52991  53.2141 293.2207 0001160  86.7511 273.3614 15.08854627 38963,6917.836,95.437,540.503,538.898,0.0
52991.0,STARLINK-4285,PAYLOAD,2023-03-21 20:29:19,15.08845282,0.0001276,53.2132,289.6538,82.1268,277.9869,0.00017008,2.42e-05,0.0,0 STARLINK-4285,1 52991U 22076F   23080.85369356  .00002420  00000-0  17008-3 0  9998,2 52991  53.2132 289.6538 0001276  82.1268 277.9869 15.08845282 39551,6917.864,95.437,540.612,538.847,0.0
52991.0,STARLINK-4285,PAYLOAD,2023-03-22 20:20:06,15.08841027,0.000132,53.2133,285.1919,87.7661,272.3482,0.00012735,1.74e-05,0.0,0 STARLINK-4285,1 52991U 22076F   23081.84729411  .00001740  00000-0  12735-3 0  9996,2 52991  53.2133 285.1919 0001320  87.7661 272.3482 15.08841027 39704,6917.877,95.437,540.655,538.829,0.0
52991.0,STARLINK-4285,PAYLOAD,2023-03-23 05:52:25,15.08831037,0.0001766,53.2141,283.4073,72.3099,287.8086,0.00021936,3.204e-05,0.0,0 STARLINK-4285,1 52991U 22076F   23082.24474101  .00003204  00000-0  21936-3 0  9994,2 52991  53.2141 283.4073 0001766  72.3099 287.8086 15.08831037 39761,6917.908,95.438,540.994,538.551,0.0
52991.0,STARLINK-4285,PAYLOAD,2023-03-23 20:10:53,15.08849566,0.0001432,53.2144,280.7342,104.252,255.8632,0.00060611,9.374e-05,0.0,0 STARLINK-4285,1 52991U 22076F   23082.84089743  .00009374  00000-0  60611-3 0  9991,2 52991  53.2144 280.7342 0001432 104.2520 255.8632 15.08849566 39855,6917.851,95.437,540.707,538.726,0.0
52991.0,STARLINK-4285,PAYLOAD,2023-03-24 12:04:44,15.08862625,0.0001178,53.2138,277.7561,95.3093,264.8034,0.0006876,0.00010679,0.0,0 STARLINK-4285,1 52991U 22076F   23083.50329057  .00010679  00000-0  68760-3 0  9993,2 52991  53.2138 277.7561 0001178  95.3093 264.8034 15.08862625 39485,6917.811,95.436,540.491,538.861,0.0
52991.0,STARLINK-4285,PAYLOAD,2023-03-24 20:01:39,15.08844885,0.0001317,53.2142,276.2714,105.9264,254.1874,-0.00041501,-6.888e-05,0.0,0 STARLINK-4285,1 52991U 22076F   23083.83448669 -.00006888  00000-0 -41501-3 0  9993,2 52991  53.2142 276.2714 0001317 105.9264 254.1874 15.08844885 40009,6917.865,95.437,540.642,538.819,0.0
52991.0,STARLINK-4285,PAYLOAD,2023-03-24 23:12:25,15.08882245,0.0001081,53.214,275.6755,100.7756,259.3358,0.0008461,0.00013219,0.0,0 STARLINK-4285,1 52991U 22076F   23083.96695645  .00013219  00000-0  84610-3 0  9997,2 52991  53.2140 275.6755 0001081 100.7756 259.3358 15.08882245 40020,6917.751,95.435,540.364,538.868,0.0
52991.0,STARLINK-4285,PAYLOAD,2023-03-25 11:55:31,15.08823281,0.0001958,53.214,273.2972,98.977,261.1444,-0.00061085,-9.992e-05,0.0,0 STARLINK-4285,1 52991U 22076F   23084.49689285 -.00009992  00000-0 -61085-3 0  9995,2 52991  53.2140 273.2972 0001958  98.9770 261.1444 15.08823281 40103,6917.931,95.439,541.151,538.442,0.0
52991.0,STARLINK-4285,PAYLOAD,2023-03-25 19:52:28,15.08796846,0.0001245,53.2139,271.81,111.6175,248.495,-0.00062321,-0.00010181,0.0,0 STARLINK-4285,1 52991U 22076F   23084.82810445 -.00010181  00000-0 -62321-3 0  9992,2 52991  53.2139 271.8100 0001245 111.6175 248.4950 15.08796846 40150,6918.012,95.44,540.739,539.016,0.0
52991.0,STARLINK-4285,PAYLOAD,2023-03-25 23:03:14,15.08805442,0.0001263,53.2137,271.2146,107.4623,252.6507,-0.00050705,-8.341e-05,0.0,0 STARLINK-4285,1 52991U 22076F   23084.96058759 -.00008341  00000-0 -50705-3 0  9997,2 52991  53.2137 271.2146 0001263 107.4623 252.6507 15.08805442 40173,6917.986,95.44,540.725,538.977,0.0
52991.0,STARLINK-4285,PAYLOAD,2023-03-26 19:43:17,15.08819877,0.0001268,53.2143,267.3507,107.4165,252.6966,0.00079672,0.00012408,0.0,0 STARLINK-4285,1 52991U 22076F   23085.82172652  .00012408  00000-0  79672-3 0  9993,2 52991  53.2143 267.3507 0001268 107.4165 252.6966 15.08819877 40304,6917.942,95.439,540.684,538.93,0.0
52991.0,STARLINK-4285,PAYLOAD,2023-03-27 11:37:08,15.08850368,0.0001228,53.2124,264.3724,143.0244,217.0833,0.00097208,0.00015221,0.0,0 STARLINK-4285,1 52991U 22076F   23086.48412159  .00015221  00000-0  97208-3 0  9996,2 52991  53.2124 264.3724 0001228 143.0244 217.0833 15.08850368 40400,6917.849,95.437,540.563,538.864,0.0
52991.0,STARLINK-4285,PAYLOAD,2023-03-27 17:58:40,15.08869671,9.92e-05,53.2135,263.1856,114.0054,246.1042,0.0013301,0.00020961,0.0,0 STARLINK-4285,1 52991U 22076F   23086.74907772  .00020961  00000-0  13301-2 0  9993,2 52991  53.2135 263.1856 0000992 114.0054 246.1042 15.08869671 39971,6917.79,95.436,540.341,538.968,0.0
52991.0,STARLINK-4285,PAYLOAD,2023-03-28 11:27:54,15.08865126,0.0001184,53.2136,259.9153,88.8909,271.2218,0.0010112,0.00015853,0.0,0 STARLINK-4285,1 52991U 22076F   23087.47771051  .00015853  00000-0  10112-2 0  9994,2 52991  53.2136 259.9153 0001184  88.8909 271.2218 15.08865126 40085,6917.804,95.436,540.488,538.85,0.0
52991.0,STARLINK-4285,PAYLOAD,2023-03-28 16:14:03,15.08865904,0.0001014,53.2137,259.0223,98.7078,261.4029,0.0012536,0.00019733,0.0,0 STARLINK-4285,1 52991U 22076F   23087.67642731  .00019733  00000-0  12536-2 0  9991,2 52991  53.2137 259.0223 0001014  98.7078 261.4029 15.08865904 40584,6917.801,95.436,540.368,538.965,0.0
52991.0,STARLINK-4285,PAYLOAD,2023-03-28 17:49:26,15.08866745,0.0001053,53.2139,258.7257,90.6676,269.4437,0.001281,0.00020173,0.0,0 STARLINK-4285,1 52991U 22076F   23087.74266661  .00020173  00000-0  12810-2 0  9998,2 52991  53.2139 258.7257 0001053  90.6676 269.4437 15.08866745 40122,6917.799,95.436,540.392,538.935,0.0
52991.0,STARLINK-4285,PAYLOAD,2023-03-29 11:18:40,15.08865125,0.0001001,53.2137,255.4541,80.0109,280.0996,0.0011121,0.00017468,0.0,0 STARLINK-4285,1 52991U 22076F   23088.47130444  .00017468  00000-0  11121-2 0  9995,2 52991  53.2137 255.4541 0001001  80.0109 280.0996 15.08865125 40701,6917.804,95.436,540.361,538.976,0.0
52991.0,STARLINK-4285,PAYLOAD,2023-03-29 17:40:13,15.08850307,0.0001029,53.2143,254.2654,62.6295,297.4801,0.0015805,0.00024962,0.0,0 STARLINK-4285,1 52991U 22076F   23088.73626528  .00024962  00000-0  15805-2 0  9997,2 52991  53.2143 254.2654 0001029  62.6295 297.4801 15.08850307 40749,6917.849,95.437,540.426,539.002,0.0
52991.0,STARLINK-4285,PAYLOAD,2023-03-30 11:09:27,15.08854522,0.000119,53.2144,250.9938,60.6113,299.4998,0.0012592,0.00019817,0.0,0 STARLINK-4285,1 52991U 22076F   23089.46490556  .00019817  00000-0  12592-2 0  9991,2 52991  53.2144 250.9938 0001190  60.6113 299.4998 15.08854522 40858,6917.836,95.437,540.524,538.878,0.0
52991.0,STARLINK-4285,PAYLOAD,2023-03-30 17:31:00,15.08856638,0.0001263,53.2143,249.8041,76.6725,283.4408,0.00076312,0.00011883,0.0,0 STARLINK-4285,1 52991U 22076F   23089.72986218  .00011883  00000-0  76312-3 0  9991,2 52991  53.2143 249.8041 0001263  76.6725 283.4408 15.08856638 40428,6917.83,95.437,540.568,538.821,0.0
52991.0,STARLINK-4285,PAYLOAD,2023-03-31 03:03:18,15.08835441,5.45e-05,53.2139,248.02,85.7891,274.3163,-0.00030986,-5.215e-05,0.0,0 STARLINK-4285,1 52991U 22076F   23090.12730073 -.00005215  00000-0 -30986-3 0  9994,2 52991  53.2139 248.0200 0000545  85.7891 274.3163 15.08835441 40952,6917.894,95.438,540.136,539.382,0.0
52991.0,STARLINK-4285,PAYLOAD,2023-03-31 14:11:00,15.08851732,0.0001048,53.2138,245.9371,69.5295,290.5809,0.00092883,0.0001453,0.0,0 STARLINK-4285,1 52991U 22076F   23090.59098142  .00014530  00000-0  92883-3 0  9991,2 52991  53.2138 245.9371 0001048  69.5295 290.5809 15.08851732 41020,6917.845,95.437,540.435,538.985,0.0
52991.0,STARLINK-4285,PAYLOAD,2023-04-01 02:54:06,15.0884095,0.0001337,53.2144,243.5613,102.2631,257.8511,0.00066493,0.00010311,0.0,0 STARLINK-4285,1 52991U 22076F   23091.12090318  .00010311  00000-0  66493-3 0  9999,2 52991  53.2144 243.5613 0001337 102.2631 257.8511 15.08840950 41105,6917.877,95.437,540.667,538.818,0.0
52991.0,STARLINK-4285,PAYLOAD,2023-04-01 09:15:38,15.08844805,0.0001154,53.2144,242.3697,91.7808,268.3316,0.00045588,6.976e-05,0.0,0 STARLINK-4285,1 52991U 22076F   23091.38586201  .00006976  00000-0  45588-3 0  9992,2 52991  53.2144 242.3697 0001154  91.7808 268.3316 15.08844805 40673,6917.866,95.437,540.529,538.932,0.0
52991.0,STARLINK-4285,PAYLOAD,2023-04-01 14:01:48,15.08826788,0.0001315,53.2142,241.4766,94.4969,265.6173,-0.00014025,-2.518e-05,0.0,0 STARLINK-4285,1 52991U 22076F   23091.58458920 -.00002518  00000-0 -14025-3 0  9992,2 52991  53.2142 241.4766 0001315  94.4969 265.6173 15.08826788 41172,6917.921,95.438,540.695,538.876,0.0
